STARLINK-1231
1 45212U 20012AL  26061.12189582  .00042481  00000+0  19358-2 0  9996
2 45212  53.0510  50.5244 0004364  49.7329 310.4047 15.20266321334075
STARLINK-2750
1 48691U 21044BF  26061.16668981  .01350671  00000+0  56543-1 0  9995
2 48691  53.1145 110.0242 0001482 103.5379  62.2150 15.20289935  5760
